{
"type": "FeatureCollection",
"crs": { "type": "name", "properties": { "name": "urn:ogc:def:crs:OGC:1.3:CRS84" } },
"features": [
{ "type": "Feature", "properties": { "id": 23435, "tmsNumber": 435, "name": "vt9_Tampere_Karkunvuori", "collectionStatus": "GATHERING", "state": null, "dataUpdatedTime": "2024-10-22T03:30:09Z" }, "geometry": { "type": "Point", "coordinates": [ 23.808471, 61.463652, 0.0 ] } },
{ "type": "Feature", "properties": { "id": 23450, "tmsNumber": 450, "name": "vt3_Tampere_Myllypuro", "collectionStatus": "GATHERING", "state": null, "dataUpdatedTime": "2023-08-09T03:03:35Z" }, "geometry": { "type": "Point", "coordinates": [ 23.56775, 61.519701, 0.0 ] } },
{ "type": "Feature", "properties": { "id": 23458, "tmsNumber": 458, "name": "vt12_Tampere_Ruotula", "collectionStatus": "GATHERING", "state": "OK", "dataUpdatedTime": "2024-10-21T07:05:09Z" }, "geometry": { "type": "Point", "coordinates": [ 23.852788, 61.504198, 0.0 ] } },
{ "type": "Feature", "properties": { "id": 23471, "tmsNumber": 471, "name": "vt3_Tampere_Multisilta", "collectionStatus": "GATHERING", "state": null, "dataUpdatedTime": "2024-03-13T14:05:09Z" }, "geometry": { "type": "Point", "coordinates": [ 23.759727, 61.439193, 0.0 ] } },
{ "type": "Feature", "properties": { "id": 23438, "tmsNumber": 438, "name": "vt12_Tre_Paasikiventie", "collectionStatus": "GATHERING", "state": null, "dataUpdatedTime": "2024-11-07T10:11:23Z" }, "geometry": { "type": "Point", "coordinates": [ 23.697679, 61.508408, 0.0 ] } },
{ "type": "Feature", "properties": { "id": 23439, "tmsNumber": 439, "name": "vt12_Tre_Teiskontie", "collectionStatus": "GATHERING", "state": null, "dataUpdatedTime": "2024-11-05T03:04:25Z" }, "geometry": { "type": "Point", "coordinates": [ 23.821503, 61.504163, 0.0 ] } },
{ "type": "Feature", "properties": { "id": 23449, "tmsNumber": 449, "name": "vt3_Tre_Sarankulma", "collectionStatus": "GATHERING", "state": null, "dataUpdatedTime": "2024-03-13T14:05:09Z" }, "geometry": { "type": "Point", "coordinates": [ 23.74535, 61.460262, 0.0 ] } },
{ "type": "Feature", "properties": { "id": 23451, "tmsNumber": 451, "name": "vt9_Tre_Aitovuori", "collectionStatus": "GATHERING", "state": null, "dataUpdatedTime": "2024-03-14T15:26:34Z" }, "geometry": { "type": "Point", "coordinates": [ 23.939764, 61.528153, 0.0 ] } },
{ "type": "Feature", "properties": { "id": 23452, "tmsNumber": 452, "name": "Vt12_Tre_Onkiniemi", "collectionStatus": "GATHERING", "state": null, "dataUpdatedTime": "2024-08-21T13:00:56Z" }, "geometry": { "type": "Point", "coordinates": [ 23.724675, 61.503156, 0.0 ] } },
{ "type": "Feature", "properties": { "id": 23455, "tmsNumber": 455, "name": "kt65_Tre_Epilänharju", "collectionStatus": "GATHERING", "state": null, "dataUpdatedTime": "2023-08-09T03:03:36Z" }, "geometry": { "type": "Point", "coordinates": [ 23.654093, 61.517417, 0.0 ] } },
{ "type": "Feature", "properties": { "id": 23456, "tmsNumber": 456, "name": "kt65_Tre_Lielahti", "collectionStatus": "REMOVED_TEMPORARILY", "state": null, "dataUpdatedTime": "2023-08-09T03:03:34Z" }, "geometry": { "type": "Point", "coordinates": [ 23.679207, 61.511616, 0.0 ] } },
{ "type": "Feature", "properties": { "id": 23457, "tmsNumber": 457, "name": "vt12_Tre_Petsamo", "collectionStatus": "GATHERING", "state": null, "dataUpdatedTime": "2024-03-14T15:44:34Z" }, "geometry": { "type": "Point", "coordinates": [ 23.785048, 61.50648, 0.0 ] } },
{ "type": "Feature", "properties": { "id": 23464, "tmsNumber": 464, "name": "yt3495_Rautaharkko", "collectionStatus": "GATHERING", "state": null, "dataUpdatedTime": "2024-11-21T09:57:27Z" }, "geometry": { "type": "Point", "coordinates": [ 23.775252, 61.479608, 0.0 ] } },
{ "type": "Feature", "properties": { "id": 21201, "tmsNumber": 21201, "name": "vt4_Oulu_Intiö_LML", "collectionStatus": "GATHERING", "state": "OK_FAULT_DOUBT_CANCELLED", "dataUpdatedTime": "2023-12-12T09:57:17Z" }, "geometry": { "type": "Point", "coordinates": [ 25.508104, 65.020043, 2.0 ] } },
{ "type": "Feature", "properties": { "id": 21202, "tmsNumber": 21202, "name": "Vt20_Oulu_Honkimaa_Flex", "collectionStatus": "REMOVED_TEMPORARILY", "state": null, "dataUpdatedTime": "2024-03-14T16:32:35Z" }, "geometry": { "type": "Point", "coordinates": [ 25.716369, 65.108883, 0.0 ] } },
{ "type": "Feature", "properties": { "id": 21203, "tmsNumber": 21203, "name": "Vt4_Oulu_Kontinkangas_Flex", "collectionStatus": "REMOVED_TEMPORARILY", "state": null, "dataUpdatedTime": "2024-03-15T09:57:53Z" }, "geometry": { "type": "Point", "coordinates": [ 25.505512, 65.007569, 0.0 ] } },
{ "type": "Feature", "properties": { "id": 21204, "tmsNumber": 21204, "name": "vt4_Oulu_Kaakkuri_LML", "collectionStatus": "GATHERING", "state": null, "dataUpdatedTime": "2025-03-26T08:20:28Z" }, "geometry": { "type": "Point", "coordinates": [ 25.515572, 64.962796, 2.0 ] } },
{ "type": "Feature", "properties": { "id": 21205, "tmsNumber": 21205, "name": "vt4_Oulu_Välivainio", "collectionStatus": "GATHERING", "state": null, "dataUpdatedTime": "2025-04-09T08:05:06Z" }, "geometry": { "type": "Point", "coordinates": [ 25.488916, 65.034668, 5.0 ] } },
{ "type": "Feature", "properties": { "id": 21206, "tmsNumber": 21206, "name": "vt4_Oulu_Niittyaro", "collectionStatus": "GATHERING", "state": null, "dataUpdatedTime": "2025-04-09T08:05:06Z" }, "geometry": { "type": "Point", "coordinates": [ 25.461919, 65.046885, 5.0 ] } },
{ "type": "Feature", "properties": { "id": 21207, "tmsNumber": 21207, "name": "vt4_Oulu_Kuivasranta", "collectionStatus": "GATHERING", "state": null, "dataUpdatedTime": "2025-04-09T07:51:42Z" }, "geometry": { "type": "Point", "coordinates": [ 25.442411, 65.070952, 5.0 ] } },
{ "type": "Feature", "properties": { "id": 21208, "tmsNumber": 21208, "name": "vt4_Oulu_Hiironen", "collectionStatus": "GATHERING", "state": null, "dataUpdatedTime": "2025-04-09T07:51:52Z" }, "geometry": { "type": "Point", "coordinates": [ 25.505204, 64.985372, 5.0 ] } },
{ "type": "Feature", "properties": { "id": 21209, "tmsNumber": 21209, "name": "vt4_Oulu_Laanila", "collectionStatus": "GATHERING", "state": null, "dataUpdatedTime": "2025-04-09T08:05:06Z" }, "geometry": { "type": "Point", "coordinates": [ 25.505316, 65.028146, 5.0 ] } },
{ "type": "Feature", "properties": { "id": 24201, "tmsNumber": 1201, "name": "vt4_Oulu_Mäntylä", "collectionStatus": "GATHERING", "state": null, "dataUpdatedTime": "2022-09-27T07:20:32Z" }, "geometry": { "type": "Point", "coordinates": [ 25.509072, 64.979487, 0.0 ] } },
{ "type": "Feature", "properties": { "id": 24206, "tmsNumber": 1206, "name": "vt4_Oulu_Ouluntulli", "collectionStatus": "GATHERING", "state": null, "dataUpdatedTime": "2022-09-27T07:20:32Z" }, "geometry": { "type": "Point", "coordinates": [ 25.532678, 64.946703, 0.0 ] } },
{ "type": "Feature", "properties": { "id": 24207, "tmsNumber": 1207, "name": "vt4_Oulu_Haukipudas", "collectionStatus": "GATHERING", "state": null, "dataUpdatedTime": "2024-07-04T03:04:19Z" }, "geometry": { "type": "Point", "coordinates": [ 25.425123, 65.174538, 0.0 ] } },
{ "type": "Feature", "properties": { "id": 24231, "tmsNumber": 1231, "name": "vt4_Oulu_Kello", "collectionStatus": "GATHERING", "state": null, "dataUpdatedTime": "2024-03-13T13:59:07Z" }, "geometry": { "type": "Point", "coordinates": [ 25.429964, 65.120506, 0.0 ] } },
{ "type": "Feature", "properties": { "id": 24237, "tmsNumber": 1237, "name": "vt4_Oulu_Intiö", "collectionStatus": "GATHERING", "state": null, "dataUpdatedTime": "2024-06-08T03:13:54Z" }, "geometry": { "type": "Point", "coordinates": [ 25.508377, 65.019337, 0.0 ] } },
{ "type": "Feature", "properties": { "id": 24238, "tmsNumber": 1238, "name": "vt4_Oulu_Isko", "collectionStatus": "GATHERING", "state": "OK", "dataUpdatedTime": "2024-05-03T10:05:10Z" }, "geometry": { "type": "Point", "coordinates": [ 25.462881, 65.046788, 0.0 ] } },
{ "type": "Feature", "properties": { "id": 24244, "tmsNumber": 1244, "name": "vt4_Oulu_Laanila", "collectionStatus": "GATHERING", "state": null, "dataUpdatedTime": "2023-05-04T03:03:28Z" }, "geometry": { "type": "Point", "coordinates": [ 25.494083, 65.032306, 0.0 ] } },
{ "type": "Feature", "properties": { "id": 24246, "tmsNumber": 1246, "name": "vt4_Oulu_Kuivasjärvi", "collectionStatus": "GATHERING", "state": null, "dataUpdatedTime": "2022-09-27T07:20:32Z" }, "geometry": { "type": "Point", "coordinates": [ 25.442274, 65.071121, 0.0 ] } },
{ "type": "Feature", "properties": { "id": 24247, "tmsNumber": 1247, "name": "st847_Oulunlahti", "collectionStatus": "GATHERING", "state": null, "dataUpdatedTime": "2024-03-15T09:15:52Z" }, "geometry": { "type": "Point", "coordinates": [ 25.492182, 64.970414, 0.0 ] } },
{ "type": "Feature", "properties": { "id": 24248, "tmsNumber": 1248, "name": "st815_Oulunsalo", "collectionStatus": "GATHERING", "state": null, "dataUpdatedTime": "2024-03-15T09:14:52Z" }, "geometry": { "type": "Point", "coordinates": [ 25.423416, 64.937519, 0.0 ] } },
{ "type": "Feature", "properties": { "id": 24250, "tmsNumber": 1250, "name": "vt4_Oulu_Kontinkangas", "collectionStatus": "GATHERING", "state": null, "dataUpdatedTime": "2024-07-04T03:04:18Z" }, "geometry": { "type": "Point", "coordinates": [ 25.506412, 65.008548, 0.0 ] } },
{ "type": "Feature", "properties": { "id": 24251, "tmsNumber": 1251, "name": "vt4_Oulu_Lintula", "collectionStatus": "GATHERING", "state": "OK", "dataUpdatedTime": "2024-09-11T08:05:09Z" }, "geometry": { "type": "Point", "coordinates": [ 25.506002, 64.995387, 0.0 ] } },
{ "type": "Feature", "properties": { "id": 24256, "tmsNumber": 1256, "name": "vt22_Oulu_Kaukovainio", "collectionStatus": "GATHERING", "state": null, "dataUpdatedTime": "2024-03-15T05:10:49Z" }, "geometry": { "type": "Point", "coordinates": [ 25.529079, 64.994916, 0.0 ] } },
{ "type": "Feature", "properties": { "id": 24257, "tmsNumber": 1257, "name": "vt22_Oulu_Iinatti", "collectionStatus": "GATHERING", "state": null, "dataUpdatedTime": "2022-09-27T07:20:32Z" }, "geometry": { "type": "Point", "coordinates": [ 25.571824, 64.978763, 0.0 ] } }
]
}
